CCSDS_OMM_VERS = 2.0
CREATION_DATE  = 
ORIGINATOR     = 

OBJECT_NAME    = PROGRESS-MS 32
OBJECT_ID      = 2025-204A
CENTER_NAME    = EARTH
REF_FRAME      = TEME
TIME_SYSTEM    = UTC
MEAN_ELEMENT_THEORY = SGP/SGP4

EPOCH          = 2025-10-29T14:50:39.872256
MEAN_MOTION    = 15.49585556
ECCENTRICITY   = .00048115
INCLINATION    = 51.6346
RA_OF_ASC_NODE = 0.9133
ARG_OF_PERICENTER = 353.9136
MEAN_ANOMALY   = 6.1794

EPHEMERIS_TYPE = 0
CLASSIFICATION_TYPE = U
NORAD_CAT_ID   = 65586
ELEMENT_SET_NO = 999
REV_AT_EPOCH   = 27
BSTAR          = .27420557E-3
MEAN_MOTION_DOT = .15001E-3
MEAN_MOTION_DDOT = 0

CCSDS_OMM_VERS = 2.0
CREATION_DATE  = 
ORIGINATOR     = 

OBJECT_NAME    = CYGNUS NG-23
OBJECT_ID      = 2025-208A
CENTER_NAME    = EARTH
REF_FRAME      = TEME
TIME_SYSTEM    = UTC
MEAN_ELEMENT_THEORY = SGP/SGP4

EPOCH          = 2025-10-29T14:50:39.872256
MEAN_MOTION    = 15.49585556
ECCENTRICITY   = .00048115
INCLINATION    = 51.6346
RA_OF_ASC_NODE = 0.9133
ARG_OF_PERICENTER = 353.9136
MEAN_ANOMALY   = 6.1794

EPHEMERIS_TYPE = 0
CLASSIFICATION_TYPE = U
NORAD_CAT_ID   = 65616
ELEMENT_SET_NO = 999
REV_AT_EPOCH   = 22
BSTAR          = .27420557E-3
MEAN_MOTION_DOT = .15001E-3
MEAN_MOTION_DDOT = 0

CCSDS_OMM_VERS = 2.0
CREATION_DATE  = 
ORIGINATOR     = 

OBJECT_NAME    = DRAGONFLY
OBJECT_ID      = 1998-067XH
CENTER_NAME    = EARTH
REF_FRAME      = TEME
TIME_SYSTEM    = UTC
MEAN_ELEMENT_THEORY = SGP/SGP4

EPOCH          = 2025-10-29T20:48:19.899072
MEAN_MOTION    = 15.59064753
ECCENTRICITY   = .00031868
INCLINATION    = 51.6315
RA_OF_ASC_NODE = 358.0763
ARG_OF_PERICENTER = 55.0694
MEAN_ANOMALY   = 305.0598

EPHEMERIS_TYPE = 0
CLASSIFICATION_TYPE = U
NORAD_CAT_ID   = 65729
ELEMENT_SET_NO = 999
REV_AT_EPOCH   = 629
BSTAR          = .1334218E-2
MEAN_MOTION_DOT = .107056E-2
MEAN_MOTION_DDOT = 0

CCSDS_OMM_VERS = 2.0
CREATION_DATE  = 
ORIGINATOR     = 

OBJECT_NAME    = 1998-067XJ
OBJECT_ID      = 1998-067XJ
CENTER_NAME    = EARTH
REF_FRAME      = TEME
TIME_SYSTEM    = UTC
MEAN_ELEMENT_THEORY = SGP/SGP4

EPOCH          = 2025-10-29T12:45:31.551552
MEAN_MOTION    = 15.66323976
ECCENTRICITY   = .00105392
INCLINATION    = 51.6298
RA_OF_ASC_NODE = 358.8330
ARG_OF_PERICENTER = 29.8375
MEAN_ANOMALY   = 330.3219

EPHEMERIS_TYPE = 0
CLASSIFICATION_TYPE = U
NORAD_CAT_ID   = 65730
ELEMENT_SET_NO = 999
REV_AT_EPOCH   = 625
BSTAR          = .22026575E-2
MEAN_MOTION_DOT = .239609E-2
MEAN_MOTION_DDOT = 0

CCSDS_OMM_VERS = 2.0
CREATION_DATE  = 
ORIGINATOR     = 

OBJECT_NAME    = 1998-067XK
OBJECT_ID      = 1998-067XK
CENTER_NAME    = EARTH
REF_FRAME      = TEME
TIME_SYSTEM    = UTC
MEAN_ELEMENT_THEORY = SGP/SGP4

EPOCH          = 2025-10-29T21:18:46.925568
MEAN_MOTION    = 15.57238385
ECCENTRICITY   = .00047463
INCLINATION    = 51.6331
RA_OF_ASC_NODE = 358.2185
ARG_OF_PERICENTER = 31.9735
MEAN_ANOMALY   = 328.1544

EPHEMERIS_TYPE = 0
CLASSIFICATION_TYPE = U
NORAD_CAT_ID   = 65731
ELEMENT_SET_NO = 999
REV_AT_EPOCH   = 629
BSTAR          = .10514675E-2
MEAN_MOTION_DOT = .78376E-3
MEAN_MOTION_DDOT = 0

CCSDS_OMM_VERS = 2.0
CREATION_DATE  = 
ORIGINATOR     = 

OBJECT_NAME    = RSP-03
OBJECT_ID      = 1998-067XL
CENTER_NAME    = EARTH
REF_FRAME      = TEME
TIME_SYSTEM    = UTC
MEAN_ELEMENT_THEORY = SGP/SGP4

EPOCH          = 2025-10-29T13:22:04.677312
MEAN_MOTION    = 15.58071580
ECCENTRICITY   = .00053537
INCLINATION    = 51.6329
RA_OF_ASC_NODE = 359.7566
ARG_OF_PERICENTER = 31.0635
MEAN_ANOMALY   = 329.0673

EPHEMERIS_TYPE = 0
CLASSIFICATION_TYPE = U
NORAD_CAT_ID   = 65732
ELEMENT_SET_NO = 999
REV_AT_EPOCH   = 625
BSTAR          = .10681393E-2
MEAN_MOTION_DOT = .82214E-3
MEAN_MOTION_DDOT = 0

CCSDS_OMM_VERS = 2.0
CREATION_DATE  = 
ORIGINATOR     = 

OBJECT_NAME    = GHS-01
OBJECT_ID      = 1998-067XM
CENTER_NAME    = EARTH
REF_FRAME      = TEME
TIME_SYSTEM    = UTC
MEAN_ELEMENT_THEORY = SGP/SGP4

EPOCH          = 2025-10-29T12:56:44.864160
MEAN_MOTION    = 15.59618696
ECCENTRICITY   = .00035098
INCLINATION    = 51.6327
RA_OF_ASC_NODE = 359.6404
ARG_OF_PERICENTER = 50.7341
MEAN_ANOMALY   = 309.3963

EPHEMERIS_TYPE = 0
CLASSIFICATION_TYPE = U
NORAD_CAT_ID   = 65733
ELEMENT_SET_NO = 999
REV_AT_EPOCH   = 625
BSTAR          = .12706968E-2
MEAN_MOTION_DOT = .104076E-2
MEAN_MOTION_DDOT = 0

CCSDS_OMM_VERS = 2.0
CREATION_DATE  = 
ORIGINATOR     = 

OBJECT_NAME    = YOTSUBA-KULOVER
OBJECT_ID      = 1998-067XN
CENTER_NAME    = EARTH
REF_FRAME      = TEME
TIME_SYSTEM    = UTC
MEAN_ELEMENT_THEORY = SGP/SGP4

EPOCH          = 2025-10-29T12:38:45.953664
MEAN_MOTION    = 15.52855752
ECCENTRICITY   = .0002385
INCLINATION    = 51.6330
RA_OF_ASC_NODE = 1.0526
ARG_OF_PERICENTER = 329.8060
MEAN_ANOMALY   = 30.2793

EPHEMERIS_TYPE = 0
CLASSIFICATION_TYPE = U
NORAD_CAT_ID   = 65941
ELEMENT_SET_NO = 999
REV_AT_EPOCH   = 297
BSTAR          = .91255201E-3
MEAN_MOTION_DOT = .5763E-3
MEAN_MOTION_DDOT = 0

CCSDS_OMM_VERS = 2.0
CREATION_DATE  = 
ORIGINATOR     = 

OBJECT_NAME    = BOTAN
OBJECT_ID      = 1998-067XP
CENTER_NAME    = EARTH
REF_FRAME      = TEME
TIME_SYSTEM    = UTC
MEAN_ELEMENT_THEORY = SGP/SGP4

EPOCH          = 2025-10-29T06:21:51.635808
MEAN_MOTION    = 15.53535995
ECCENTRICITY   = .00044855
INCLINATION    = 51.6330
RA_OF_ASC_NODE = 2.3057
ARG_OF_PERICENTER = 349.8237
MEAN_ANOMALY   = 10.2662

EPHEMERIS_TYPE = 0
CLASSIFICATION_TYPE = U
NORAD_CAT_ID   = 65942
ELEMENT_SET_NO = 999
REV_AT_EPOCH   = 293
BSTAR          = .12538941E-2
MEAN_MOTION_DOT = .81619E-3
MEAN_MOTION_DDOT = 0

CCSDS_OMM_VERS = 2.0
CREATION_DATE  = 
ORIGINATOR     = 

OBJECT_NAME    = E-KAGAKU-1
OBJECT_ID      = 1998-067XQ
CENTER_NAME    = EARTH
REF_FRAME      = TEME
TIME_SYSTEM    = UTC
MEAN_ELEMENT_THEORY = SGP/SGP4

EPOCH          = 2025-10-29T12:38:09.926592
MEAN_MOTION    = 15.52865826
ECCENTRICITY   = .0004142
INCLINATION    = 51.6334
RA_OF_ASC_NODE = 1.0497
ARG_OF_PERICENTER = 339.6599
MEAN_ANOMALY   = 20.4226

EPHEMERIS_TYPE = 0
CLASSIFICATION_TYPE = U
NORAD_CAT_ID   = 65943
ELEMENT_SET_NO = 999
REV_AT_EPOCH   = 297
BSTAR          = .88576289E-3
MEAN_MOTION_DOT = .55943E-3
MEAN_MOTION_DDOT = 0

CCSDS_OMM_VERS = 2.0
CREATION_DATE  = 
ORIGINATOR     = 

OBJECT_NAME    = HRC MONOBLOCK CAMERA
OBJECT_ID      = 1998-067XR
CENTER_NAME    = EARTH
REF_FRAME      = TEME
TIME_SYSTEM    = UTC
MEAN_ELEMENT_THEORY = SGP/SGP4

EPOCH          = 2025-10-29T20:55:22.205856
MEAN_MOTION    = 15.50426752
ECCENTRICITY   = .00043211
INCLINATION    = 51.6331
RA_OF_ASC_NODE = 359.6052
ARG_OF_PERICENTER = 3.3758
MEAN_ANOMALY   = 356.7259

EPHEMERIS_TYPE = 0
CLASSIFICATION_TYPE = U
NORAD_CAT_ID   = 66052
ELEMENT_SET_NO = 999
REV_AT_EPOCH   = 202
BSTAR          = .62578692E-3
MEAN_MOTION_DOT = .35973E-3
MEAN_MOTION_DDOT = 0

CCSDS_OMM_VERS = 2.0
CREATION_DATE  = 
ORIGINATOR     = 

OBJECT_NAME    = HTV-X1
OBJECT_ID      = 2025-241A
CENTER_NAME    = EARTH
REF_FRAME      = TEME
TIME_SYSTEM    = UTC
MEAN_ELEMENT_THEORY = SGP/SGP4

EPOCH          = 2025-10-27T11:51:43.149024
MEAN_MOTION    = 15.52723727
ECCENTRICITY   = .0004046
INCLINATION    = 51.6338
RA_OF_ASC_NODE = 11.4824
ARG_OF_PERICENTER = 344.0379
MEAN_ANOMALY   = 16.0483

EPHEMERIS_TYPE = 0
CLASSIFICATION_TYPE = U
NORAD_CAT_ID   = 66174
ELEMENT_SET_NO = 999
REV_AT_EPOCH   = 24
BSTAR          = .16773E-3
MEAN_MOTION_DOT = .10095E-3
MEAN_MOTION_DDOT = 0

