PROGRESS-MS 32          
1 65586U 25204A   25302.61851704  .00015001  00000+0  27421-3 0  9992
2 65586  51.6346   0.9133 0004811 353.9136   6.1794 15.49585556   276
CYGNUS NG-23            
1 65616U 25208A   25302.61851704  .00015001  00000+0  27421-3 0  9990
2 65616  51.6346   0.9133 0004811 353.9136   6.1794 15.49585556   225
DRAGONFLY               
1 65729U 98067XH  25302.86689698  .00107056  00000+0  13342-2 0  9994
2 65729  51.6315 358.0763 0003186  55.0694 305.0598 15.59064753  6293
1998-067XJ              
1 65730U 98067XJ  25302.53161518  .00239609  00000+0  22027-2 0  9996
2 65730  51.6298 358.8330 0010539  29.8375 330.3219 15.66323976  6258
1998-067XK              
1 65731U 98067XK  25302.88804312  .00078376  00000+0  10515-2 0  9992
2 65731  51.6331 358.2185 0004746  31.9735 328.1544 15.57238385  6295
RSP-03                  
1 65732U 98067XL  25302.55699858  .00082214  00000+0  10681-2 0  9994
2 65732  51.6329 359.7566 0005353  31.0635 329.0673 15.58071580  6259
GHS-01                  
1 65733U 98067XM  25302.53940815  .00104076  00000+0  12707-2 0  9997
2 65733  51.6327 359.6404 0003509  50.7341 309.3963 15.59618696  6250
YOTSUBA-KULOVER         
1 65941U 98067XN  25302.52692076  .00057630  00000+0  91255-3 0  9999
2 65941  51.6330   1.0526 0002385 329.8060  30.2793 15.52855752  2972
BOTAN                   
1 65942U 98067XP  25302.26518097  .00081619  00000+0  12539-2 0  9992
2 65942  51.6330   2.3057 0004485 349.8237  10.2662 15.53535995  2931
E-KAGAKU-1              
1 65943U 98067XQ  25302.52650378  .00055943  00000+0  88576-3 0  9997
2 65943  51.6334   1.0497 0004142 339.6599  20.4226 15.52865826  2979
HRC MONOBLOCK CAMERA    
1 66052U 98067XR  25302.87178479  .00035973  00000+0  62579-3 0  9990
2 66052  51.6331 359.6052 0004321   3.3758 356.7259 15.50426752  2024
HTV-X1                  
1 66174U 25241A   25300.49424941  .00010095  00000+0  16773-3 0  9996
2 66174  51.6338  11.4824 0004046 344.0379  16.0483 15.52723727   245
